[{"OBJECT_NAME":"QIANFAN-99","OBJECT_ID":"2025-233J","EPOCH":"2026-03-09T22:07:43.096512","MEAN_MOTION":13.51005078,"ECCENTRICITY":0.00023755,"INCLINATION":88.9943,"RA_OF_ASC_NODE":53.2192,"ARG_OF_PERICENTER":86.7048,"MEAN_ANOMALY":273.4375,"EPHEMERIS_TYPE":0,"CLASSIFICATION_TYPE":"U","NORAD_CAT_ID":66041,"ELEMENT_SET_NO":999,"REV_AT_EPOCH":1978,"BSTAR":4.3072856e-5,"MEAN_MOTION_DOT":4.0e-7,"MEAN_MOTION_DDOT":0},{"OBJECT_NAME":"COSMOS 1275 DEB","OBJECT_ID":"1981-053BE","EPOCH":"2026-03-09T20:29:41.430336","MEAN_MOTION":13.73590675,"ECCENTRICITY":0.01103671,"INCLINATION":83.0092,"RA_OF_ASC_NODE":334.8169,"ARG_OF_PERICENTER":265.7453,"MEAN_ANOMALY":93.1084,"EPHEMERIS_TYPE":0,"CLASSIFICATION_TYPE":"U","NORAD_CAT_ID":12710,"ELEMENT_SET_NO":999,"REV_AT_EPOCH":21617,"BSTAR":0.00077384087,"MEAN_MOTION_DOT":7.67e-6,"MEAN_MOTION_DDOT":0}]
